NORAD_CAT_ID,OBJECT_NAME,OBJECT_TYPE,EPOCH,MEAN_MOTION,ECCENTRICITY,INCLINATION,RA_OF_ASC_NODE,ARG_OF_PERICENTER,MEAN_ANOMALY,BSTAR,MEAN_MOTION_DOT,MEAN_MOTION_DDOT,TLE_LINE0,TLE_LINE1,TLE_LINE2,SEMIMAJOR_AXIS,PERIOD,APOGEE,PERIGEE,DECAYED
53849.0,STARLINK-4770,PAYLOAD,2023-01-02 13:45:53,15.08840595,0.0001623,53.2169,110.9046,56.0495,304.0651,-8.207200000000001e-05,-1.594e-05,0.0,0 STARLINK-4770,1 53849U 22114AH  23002.57353674 -.00001594  00000-0 -82072-4 0  9990,2 53849  53.2169 110.9046 0001623  56.0495 304.0651 15.08840595 16998,6917.879,95.438,540.866,538.621,0.0
53849.0,STARLINK-4770,PAYLOAD,2023-01-03 05:39:44,15.08844084,0.0001631999999999,53.2178,107.9311,53.5378,306.5764,-8.7733e-05,-1.684e-05,0.0,0 STARLINK-4770,1 53849U 22114AH  23003.23593677 -.00001684  00000-0 -87733-4 0  9992,2 53849  53.2178 107.9311 0001632  53.5378 306.5764 15.08844084 17632,6917.868,95.437,540.862,538.604,0.0
53849.0,STARLINK-4770,PAYLOAD,2023-01-03 16:47:27,15.08828197,0.0001671,53.2178,105.8496,55.8646,304.2504,0.00020255,2.936e-05,0.0,0 STARLINK-4770,1 53849U 22114AH  23003.69961849  .00002936  00000-0  20255-3 0  9996,2 53849  53.2178 105.8496 0001671  55.8646 304.2504 15.08828197 17161,6917.916,95.438,540.937,538.625,0.0
53849.0,STARLINK-4770,PAYLOAD,2023-01-04 13:27:27,15.08843765,0.000166,53.2193,101.9861,59.3731,300.7425,0.00011457,1.536e-05,0.0,0 STARLINK-4770,1 53849U 22114AH  23004.56073922  .00001536  00000-0  11457-3 0  9998,2 53849  53.2193 101.9861 0001660  59.3731 300.7425 15.08843765 17838,6917.869000000002,95.437,540.882,538.586,0.0
53849.0,STARLINK-4770,PAYLOAD,2023-01-05 06:56:44,15.08823832,0.0001689,53.2188,98.7139,56.3184,303.7969,-8.7767e-05,-1.684e-05,0.0,0 STARLINK-4770,1 53849U 22114AH  23005.28939897 -.00001684  00000-0 -87767-4 0  9994,2 53849  53.2188  98.7139 0001689  56.3184 303.7969 15.08823832 17405,6917.93,95.439,540.9630000000002,538.626,0.0
53849.0,STARLINK-4770,PAYLOAD,2023-01-05 13:18:16,15.08836802,0.0001536,53.2193,97.5254,72.5552,287.5608,-0.00013227,-2.392e-05,0.0,0 STARLINK-4770,1 53849U 22114AH  23005.55435497 -.00002392  00000-0 -13227-3 0  9997,2 53849  53.2193  97.5254 0001536  72.5552 287.5608 15.08836802 17440,6917.89,95.438,540.818,538.693,0.0
53849.0,STARLINK-4770,PAYLOAD,2023-01-05 14:53:39,15.08837044,0.0001709,53.2185,97.2274,61.6008,298.5157,-0.00012775,-2.32e-05,0.0,0 STARLINK-4770,1 53849U 22114AH  23005.62059519 -.00002320  00000-0 -12775-3 0  9990,2 53849  53.2185  97.2274 0001709  61.6008 298.5157 15.08837044 17997,6917.889,95.438,540.937,538.572,0.0
53849.0,STARLINK-4770,PAYLOAD,2023-01-06 06:47:30,15.08839704,0.0001563,53.2176,94.252,56.5894,303.5248,-7.6048e-05,-1.498e-05,0.0,0 STARLINK-4770,1 53849U 22114AH  23006.28299651 -.00001498  00000-0 -76048-4 0  9995,2 53849  53.2176  94.2520 0001563  56.5894 303.5248 15.08839704 18097,6917.880999999999,95.438,540.828,538.665,0.0
53849.0,STARLINK-4770,PAYLOAD,2023-01-06 22:41:21,15.08843291,0.0001568,53.2183,91.2793,62.0104,298.1046,-2.4949e-05,-6.85e-06,0.0,0 STARLINK-4770,1 53849U 22114AH  23006.94539219 -.00000685  00000-0 -24949-4 0  9995,2 53849  53.2183  91.2793 0001568  62.0104 298.1046 15.08843291 17657,6917.87,95.437,540.82,538.651,0.0
53849.0,STARLINK-4770,PAYLOAD,2023-01-07 05:02:55,15.08826156,0.0001981,53.2181,90.0907,72.1946,287.9262,6.408e-05,7.31e-06,0.0,0 STARLINK-4770,1 53849U 22114AH  23007.21036331  .00000731  00000-0  64080-4 0  9993,2 53849  53.2181  90.0907 0001981  72.1946 287.9262 15.08826156 18236,6917.923000000002,95.438,541.158,538.4169999999998,0.0
53849.0,STARLINK-4770,PAYLOAD,2023-01-07 11:24:28,15.08825536,0.0001832,53.219,88.902,69.483,290.6358,6.4697e-05,7.41e-06,0.0,0 STARLINK-4770,1 53849U 22114AH  23007.47532560  .00000741  00000-0  64697-4 0  9991,2 53849  53.2190  88.9020 0001832  69.4830 290.6358 15.08825536 17736,6917.925,95.438,541.057,538.5219999999998,0.0
53849.0,STARLINK-4770,PAYLOAD,2023-01-07 14:35:14,15.08822439,0.0001569,53.2183,88.3071,70.4567,289.6595,1.4616e-05,-5.5e-07,0.0,0 STARLINK-4770,1 53849U 22114AH  23007.60780995 -.00000055  00000-0  14616-4 0  9998,2 53849  53.2183  88.3071 0001569  70.4567 289.6595 15.08822439 18296,6917.934,95.439,540.884,538.714,0.0
53849.0,STARLINK-4770,PAYLOAD,2023-01-08 00:07:32,15.0884298,0.0001372,53.2175,86.5223,65.0123,295.1012,-4.6945e-05,-1.035e-05,0.0,0 STARLINK-4770,1 53849U 22114AH  23008.00523983 -.00001035  00000-0 -46945-4 0  9995,2 53849  53.2175  86.5223 0001372  65.0123 295.1012 15.08842980 17812,6917.871,95.437,540.685,538.7869999999998,0.0
53849.0,STARLINK-4770,PAYLOAD,2023-01-08 11:15:14,15.08845534,0.0001394,53.2172,84.4402,67.9513,292.1628,0.00012404,1.687e-05,0.0,0 STARLINK-4770,1 53849U 22114AH  23008.46891304  .00001687  00000-0  12404-3 0  9993,2 53849  53.2172  84.4402 0001394  67.9513 292.1628 15.08845534 18429,6917.863,95.437,540.693,538.764,0.0
53849.0,STARLINK-4770,PAYLOAD,2023-01-08 14:26:00,15.08846248,0.0001384,53.2172,83.8459,50.664,309.4475,0.00013782,1.907e-05,0.0,0 STARLINK-4770,1 53849U 22114AH  23008.60139202  .00001907  00000-0  13782-3 0  9996,2 53849  53.2172  83.8459 0001384  50.6640 309.4475 15.08846248 17900,6917.861,95.437,540.684,538.769,0.0
53849.0,STARLINK-4770,PAYLOAD,2023-01-09 14:16:47,15.08845369,0.0001306,53.2173,79.3827,90.2893,269.8248,0.00012111,1.64e-05,0.0,0 STARLINK-4770,1 53849U 22114AH  23009.59499143  .00001640  00000-0  12111-3 0  9997,2 53849  53.2173  79.3827 0001306  90.2893 269.8248 15.08845369 18590,6917.864000000001,95.437,540.632,538.826,0.0
53849.0,STARLINK-4770,PAYLOAD,2023-01-10 09:21:25,15.08841481,0.0001317,53.2169,75.8177,75.5476,284.5663,-7.052e-05,-1.41e-05,0.0,0 STARLINK-4770,1 53849U 22114AH  23010.38988039 -.00001410  00000-0 -70520-4 0  9999,2 53849  53.2169  75.8177 0001317  75.5476 284.5663 15.08841481 18179,6917.876,95.437,540.6519999999998,538.83,0.0
53849.0,STARLINK-4770,PAYLOAD,2023-01-10 10:56:48,15.08843756,0.000126,53.2169,75.5201,81.6688,278.4446,-5.0228e-05,-1.087e-05,0.0,0 STARLINK-4770,1 53849U 22114AH  23010.45611771 -.00001087  00000-0 -50228-4 0  9996,2 53849  53.2169  75.5201 0001260  81.6688 278.4446 15.08843756 18723,6917.8690000000015,95.437,540.606,538.862,0.0
53849.0,STARLINK-4770,PAYLOAD,2023-01-11 10:47:35,15.08840521,9.25e-05,53.2182,71.06,91.3985,268.7113,4.2504e-05,3.89e-06,0.0,0 STARLINK-4770,1 53849U 22114AH  23011.44971532  .00000389  00000-0  42504-4 0  9990,2 53849  53.2182  71.0600 0000925  91.3985 268.7113 15.08840521 18334,6917.879,95.438,540.384,539.104,0.0
53849.0,STARLINK-4770,PAYLOAD,2023-01-11 20:19:54,15.08839713,0.0001405,53.2173,69.2746,94.2526,265.8626,5.3687e-05,5.67e-06,0.0,0 STARLINK-4770,1 53849U 22114AH  23011.84715581  .00000567  00000-0  53687-4 0  9996,2 53849  53.2173  69.2746 0001405  94.2526 265.8626 15.08839713 18935,6917.880999999999,95.438,540.7180000000002,538.774,0.0
53849.0,STARLINK-4770,PAYLOAD,2023-01-12 10:38:23,15.08831744,0.0001151,53.2186,66.6015,101.5214,258.5907,8.8137e-06,-1.48e-06,0.0,0 STARLINK-4770,1 53849U 22114AH  23012.44332395 -.00000148  00000-0  88137-5 0  9996,2 53849  53.2186  66.6015 0001151 101.5214 258.5907 15.08831744 18480,6917.906,95.438,540.567,538.974,0.0
53849.0,STARLINK-4770,PAYLOAD,2023-01-12 20:10:41,15.088404,0.0001221,53.2187,64.8172,99.9564,260.1566,8.8655e-06,-1.47e-06,0.0,0 STARLINK-4770,1 53849U 22114AH  23012.84075885 -.00000147  00000-0  88655-5 0  9992,2 53849  53.2187  64.8172 0001221  99.9564 260.1566 15.08840400 19087,6917.879,95.438,540.589,538.899,0.0
53849.0,STARLINK-4770,PAYLOAD,2023-01-13 12:04:33,15.08843397,0.0001235,53.2171,61.8407,74.4336,285.6792,-1.4326e-05,-5.16e-06,0.0,0 STARLINK-4770,1 53849U 22114AH  23013.50316138 -.00000516  00000-0 -14326-4 0  9999,2 53849  53.2171  61.8407 0001235  74.4336 285.6792 15.08843397 18640,6917.87,95.437,540.589,538.881,0.0
53849.0,STARLINK-4770,PAYLOAD,2023-01-13 20:01:29,15.08838416,0.0001339,53.2167,60.3511,81.76100000000001,278.3534,-7.6535e-05,-1.506e-05,0.0,0 STARLINK-4770,1 53849U 22114AH  23013.83436626 -.00001506  00000-0 -76535-4 0  9990,2 53849  53.2167  60.3511 0001339  81.7610 278.3534 15.08838416 19231,6917.885,95.438,540.677,538.8240000000001,0.0
53849.0,STARLINK-4770,PAYLOAD,2023-01-14 07:09:11,15.08832447,0.0001192,53.2168,58.2734,90.4797,269.6332,4.8182e-05,4.79e-06,0.0,0 STARLINK-4770,1 53849U 22114AH  23014.29804726  .00000479  00000-0  48182-4 0  9994,2 53849  53.2168  58.2734 0001192  90.4797 269.6332 15.08832447 18769,6917.903,95.438,540.5930000000001,538.944,0.0
53849.0,STARLINK-4770,PAYLOAD,2023-01-14 10:19:57,15.088425,0.0001509,53.2176,57.677,82.6145,277.5018,3.1055e-05,2.06e-06,0.0,0 STARLINK-4770,1 53849U 22114AH  23014.43052291  .00000206  00000-0  31055-4 0  9991,2 53849  53.2176  57.6770 0001509  82.6145 277.5018 15.08842500 18785,6917.8730000000005,95.437,540.7819999999999,538.694,0.0
53849.0,STARLINK-4770,PAYLOAD,2023-01-14 19:52:16,15.08836243,0.0001796,53.2175,55.8929,88.185,271.9348,-2.4342e-06,-3.27e-06,0.0,0 STARLINK-4770,1 53849U 22114AH  23014.82796932 -.00000327  00000-0 -24342-5 0  9999,2 53849  53.2175  55.8929 0001796  88.1850 271.9348 15.08836243 18840,6917.892,95.438,540.999,538.514,0.0
53849.0,STARLINK-4770,PAYLOAD,2023-01-15 11:46:07,15.08844086,0.0001568,53.2172,52.92,90.2586,269.8586,5.6084e-06,-1.99e-06,0.0,0 STARLINK-4770,1 53849U 22114AH  23015.49036550 -.00000199  00000-0  56084-5 0  9990,2 53849  53.2172  52.9200 0001568  90.2586 269.8586 15.08844086 19489,6917.868,95.437,540.818,538.648,0.0
53849.0,STARLINK-4770,PAYLOAD,2023-01-15 19:43:03,15.08839276,0.0001488,53.2153,51.4336,99.8057,260.3103,-1.7559000000000002e-05,-5.67e-06,0.0,0 STARLINK-4770,1 53849U 22114AH  23015.82156854 -.00000567  00000-0 -17559-4 0  9990,2 53849  53.2153  51.4336 0001488  99.8057 260.3103 15.08839276 19533,6917.883000000001,95.438,540.7769999999999,538.7180000000001,0.0
